IRIDIUM 7               
1 24793U 97020B   25260.64748182  .00000294  00000+0  94454-4 0  9992
2 24793  86.3981 138.2059 0002157  94.7072 265.4371 14.36000896485163
IRIDIUM 5               
1 24795U 97020D   25260.89827806  .00006249  00000+0  50385-3 0  9992
2 24795  86.3880  40.9263 0107850 164.3524 196.1084 14.95160374499317
IRIDIUM 4               
1 24796U 97020E   25260.71225216  .00000303  00000+0  95905-4 0  9994
2 24796  86.3970 134.9960 0002066  89.2758 270.8676 14.36901909485755
IRIDIUM 914             
1 24836U 97030A   25260.73410034  .00000346  00000+0  10169-3 0  9991
2 24836  86.3969 143.3116 0000637  64.7583 295.3683 14.40945183620456
IRIDIUM 16              
1 24841U 97030F   25260.76348393  .00000308  00000+0  93799-4 0  9997
2 24841  86.4104 166.4251 0004165 103.5154 256.6508 14.38778215480318
IRIDIUM 911             
1 24842U 97030G   25260.87573920  .00000488  00000+0  12644-3 0  9994
2 24842  86.4526 165.0486 0015304 141.0994 219.1314 14.47738046488492
IRIDIUM 17              
1 24870U 97034B   25260.87710819  .00000433  00000+0  13685-3 0  9995
2 24870  86.4019 195.7931 0003897  79.5795 280.5842 14.37902489476907
IRIDIUM 920             
1 24871U 97034C   25260.82060273  .00000399  00000+0  11635-3 0  9997
2 24871  86.4048 174.8620 0013088 128.5516 231.6859 14.41609321479926
