<?xml version="1.0" encoding="UTF-8"?>
<ndm xmlns:xsi="http://www.w3.org/2001/XMLSchema-instance" xsi:noNamespaceSchemaLocation="https://sanaregistry.org/r/ndmxml_unqualified/ndmxml-2.0.0-master-2.0.xsd">
<omm id="CCSDS_OMM_VERS" version="2.0">
<header><CREATION_DATE/><ORIGINATOR/></header><body><segment><metadata><OBJECT_NAME>IRIDIUM 7</OBJECT_NAME><OBJECT_ID>1997-020B</OBJECT_ID><CENTER_NAME>EARTH</CENTER_NAME><REF_FRAME>TEME</REF_FRAME><TIME_SYSTEM>UTC</TIME_SYSTEM><MEAN_ELEMENT_THEORY>SGP4</MEAN_ELEMENT_THEORY></metadata><data><meanElements><EPOCH>2025-09-17T15:32:22.429248</EPOCH><MEAN_MOTION>14.36000896</MEAN_MOTION><ECCENTRICITY>.00021576</ECCENTRICITY><INCLINATION>86.3981</INCLINATION><RA_OF_ASC_NODE>138.2059</RA_OF_ASC_NODE><ARG_OF_PERICENTER>94.7072</ARG_OF_PERICENTER><MEAN_ANOMALY>265.4371</MEAN_ANOMALY></meanElements><tleParameters><EPHEMERIS_TYPE>0</EPHEMERIS_TYPE><CLASSIFICATION_TYPE>U</CLASSIFICATION_TYPE><NORAD_CAT_ID>24793</NORAD_CAT_ID><ELEMENT_SET_NO>999</ELEMENT_SET_NO><REV_AT_EPOCH>48516</REV_AT_EPOCH><BSTAR>.94453745E-4</BSTAR><MEAN_MOTION_DOT>.294E-5</MEAN_MOTION_DOT><MEAN_MOTION_DDOT>0</MEAN_MOTION_DDOT></tleParameters></data></segment></body></omm>
<omm id="CCSDS_OMM_VERS" version="2.0">
<header><CREATION_DATE/><ORIGINATOR/></header><body><segment><metadata><OBJECT_NAME>IRIDIUM 5</OBJECT_NAME><OBJECT_ID>1997-020D</OBJECT_ID><CENTER_NAME>EARTH</CENTER_NAME><REF_FRAME>TEME</REF_FRAME><TIME_SYSTEM>UTC</TIME_SYSTEM><MEAN_ELEMENT_THEORY>SGP4</MEAN_ELEMENT_THEORY></metadata><data><meanElements><EPOCH>2025-09-17T21:33:31.224384</EPOCH><MEAN_MOTION>14.95160374</MEAN_MOTION><ECCENTRICITY>.01078503</ECCENTRICITY><INCLINATION>86.3880</INCLINATION><RA_OF_ASC_NODE>40.9263</RA_OF_ASC_NODE><ARG_OF_PERICENTER>164.3524</ARG_OF_PERICENTER><MEAN_ANOMALY>196.1084</MEAN_ANOMALY></meanElements><tleParameters><EPHEMERIS_TYPE>0</EPHEMERIS_TYPE><CLASSIFICATION_TYPE>U</CLASSIFICATION_TYPE><NORAD_CAT_ID>24795</NORAD_CAT_ID><ELEMENT_SET_NO>999</ELEMENT_SET_NO><REV_AT_EPOCH>49931</REV_AT_EPOCH><BSTAR>.50385377E-3</BSTAR><MEAN_MOTION_DOT>.6249E-4</MEAN_MOTION_DOT><MEAN_MOTION_DDOT>0</MEAN_MOTION_DDOT></tleParameters></data></segment></body></omm>
<omm id="CCSDS_OMM_VERS" version="2.0">
<header><CREATION_DATE/><ORIGINATOR/></header><body><segment><metadata><OBJECT_NAME>IRIDIUM 4</OBJECT_NAME><OBJECT_ID>1997-020E</OBJECT_ID><CENTER_NAME>EARTH</CENTER_NAME><REF_FRAME>TEME</REF_FRAME><TIME_SYSTEM>UTC</TIME_SYSTEM><MEAN_ELEMENT_THEORY>SGP4</MEAN_ELEMENT_THEORY></metadata><data><meanElements><EPOCH>2025-09-17T17:05:38.586624</EPOCH><MEAN_MOTION>14.36901909</MEAN_MOTION><ECCENTRICITY>.00020664</ECCENTRICITY><INCLINATION>86.3970</INCLINATION><RA_OF_ASC_NODE>134.9960</RA_OF_ASC_NODE><ARG_OF_PERICENTER>89.2758</ARG_OF_PERICENTER><MEAN_ANOMALY>270.8676</MEAN_ANOMALY></meanElements><tleParameters><EPHEMERIS_TYPE>0</EPHEMERIS_TYPE><CLASSIFICATION_TYPE>U</CLASSIFICATION_TYPE><NORAD_CAT_ID>24796</NORAD_CAT_ID><ELEMENT_SET_NO>999</ELEMENT_SET_NO><REV_AT_EPOCH>48575</REV_AT_EPOCH><BSTAR>.95904905E-4</BSTAR><MEAN_MOTION_DOT>.303E-5</MEAN_MOTION_DOT><MEAN_MOTION_DDOT>0</MEAN_MOTION_DDOT></tleParameters></data></segment></body></omm>
<omm id="CCSDS_OMM_VERS" version="2.0">
<header><CREATION_DATE/><ORIGINATOR/></header><body><segment><metadata><OBJECT_NAME>IRIDIUM 914</OBJECT_NAME><OBJECT_ID>1997-030A</OBJECT_ID><CENTER_NAME>EARTH</CENTER_NAME><REF_FRAME>TEME</REF_FRAME><TIME_SYSTEM>UTC</TIME_SYSTEM><MEAN_ELEMENT_THEORY>SGP4</MEAN_ELEMENT_THEORY></metadata><data><meanElements><EPOCH>2025-09-17T17:37:06.269376</EPOCH><MEAN_MOTION>14.40945183</MEAN_MOTION><ECCENTRICITY>.00006372</ECCENTRICITY><INCLINATION>86.3969</INCLINATION><RA_OF_ASC_NODE>143.3116</RA_OF_ASC_NODE><ARG_OF_PERICENTER>64.7583</ARG_OF_PERICENTER><MEAN_ANOMALY>295.3683</MEAN_ANOMALY></meanElements><tleParameters><EPHEMERIS_TYPE>0</EPHEMERIS_TYPE><CLASSIFICATION_TYPE>U</CLASSIFICATION_TYPE><NORAD_CAT_ID>24836</NORAD_CAT_ID><ELEMENT_SET_NO>999</ELEMENT_SET_NO><REV_AT_EPOCH>62045</REV_AT_EPOCH><BSTAR>.10168619E-3</BSTAR><MEAN_MOTION_DOT>.346E-5</MEAN_MOTION_DOT><MEAN_MOTION_DDOT>0</MEAN_MOTION_DDOT></tleParameters></data></segment></body></omm>
<omm id="CCSDS_OMM_VERS" version="2.0">
<header><CREATION_DATE/><ORIGINATOR/></header><body><segment><metadata><OBJECT_NAME>IRIDIUM 16</OBJECT_NAME><OBJECT_ID>1997-030F</OBJECT_ID><CENTER_NAME>EARTH</CENTER_NAME><REF_FRAME>TEME</REF_FRAME><TIME_SYSTEM>UTC</TIME_SYSTEM><MEAN_ELEMENT_THEORY>SGP4</MEAN_ELEMENT_THEORY></metadata><data><meanElements><EPOCH>2025-09-17T18:19:25.011552</EPOCH><MEAN_MOTION>14.38778215</MEAN_MOTION><ECCENTRICITY>.00041658</ECCENTRICITY><INCLINATION>86.4104</INCLINATION><RA_OF_ASC_NODE>166.4251</RA_OF_ASC_NODE><ARG_OF_PERICENTER>103.5154</ARG_OF_PERICENTER><MEAN_ANOMALY>256.6508</MEAN_ANOMALY></meanElements><tleParameters><EPHEMERIS_TYPE>0</EPHEMERIS_TYPE><CLASSIFICATION_TYPE>U</CLASSIFICATION_TYPE><NORAD_CAT_ID>24841</NORAD_CAT_ID><ELEMENT_SET_NO>999</ELEMENT_SET_NO><REV_AT_EPOCH>48031</REV_AT_EPOCH><BSTAR>.93798703E-4</BSTAR><MEAN_MOTION_DOT>.308E-5</MEAN_MOTION_DOT><MEAN_MOTION_DDOT>0</MEAN_MOTION_DDOT></tleParameters></data></segment></body></omm>
<omm id="CCSDS_OMM_VERS" version="2.0">
<header><CREATION_DATE/><ORIGINATOR/></header><body><segment><metadata><OBJECT_NAME>IRIDIUM 911</OBJECT_NAME><OBJECT_ID>1997-030G</OBJECT_ID><CENTER_NAME>EARTH</CENTER_NAME><REF_FRAME>TEME</REF_FRAME><TIME_SYSTEM>UTC</TIME_SYSTEM><MEAN_ELEMENT_THEORY>SGP4</MEAN_ELEMENT_THEORY></metadata><data><meanElements><EPOCH>2025-09-17T21:01:03.866880</EPOCH><MEAN_MOTION>14.47738046</MEAN_MOTION><ECCENTRICITY>.00153043</ECCENTRICITY><INCLINATION>86.4526</INCLINATION><RA_OF_ASC_NODE>165.0486</RA_OF_ASC_NODE><ARG_OF_PERICENTER>141.0994</ARG_OF_PERICENTER><MEAN_ANOMALY>219.1314</MEAN_ANOMALY></meanElements><tleParameters><EPHEMERIS_TYPE>0</EPHEMERIS_TYPE><CLASSIFICATION_TYPE>U</CLASSIFICATION_TYPE><NORAD_CAT_ID>24842</NORAD_CAT_ID><ELEMENT_SET_NO>999</ELEMENT_SET_NO><REV_AT_EPOCH>48849</REV_AT_EPOCH><BSTAR>.12644116E-3</BSTAR><MEAN_MOTION_DOT>.488E-5</MEAN_MOTION_DOT><MEAN_MOTION_DDOT>0</MEAN_MOTION_DDOT></tleParameters></data></segment></body></omm>
<omm id="CCSDS_OMM_VERS" version="2.0">
<header><CREATION_DATE/><ORIGINATOR/></header><body><segment><metadata><OBJECT_NAME>IRIDIUM 17</OBJECT_NAME><OBJECT_ID>1997-034B</OBJECT_ID><CENTER_NAME>EARTH</CENTER_NAME><REF_FRAME>TEME</REF_FRAME><TIME_SYSTEM>UTC</TIME_SYSTEM><MEAN_ELEMENT_THEORY>SGP4</MEAN_ELEMENT_THEORY></metadata><data><meanElements><EPOCH>2025-09-17T21:03:02.147616</EPOCH><MEAN_MOTION>14.37902489</MEAN_MOTION><ECCENTRICITY>.00038979</ECCENTRICITY><INCLINATION>86.4019</INCLINATION><RA_OF_ASC_NODE>195.7931</RA_OF_ASC_NODE><ARG_OF_PERICENTER>79.5795</ARG_OF_PERICENTER><MEAN_ANOMALY>280.5842</MEAN_ANOMALY></meanElements><tleParameters><EPHEMERIS_TYPE>0</EPHEMERIS_TYPE><CLASSIFICATION_TYPE>U</CLASSIFICATION_TYPE><NORAD_CAT_ID>24870</NORAD_CAT_ID><ELEMENT_SET_NO>999</ELEMENT_SET_NO><REV_AT_EPOCH>47690</REV_AT_EPOCH><BSTAR>.13685391E-3</BSTAR><MEAN_MOTION_DOT>.433E-5</MEAN_MOTION_DOT><MEAN_MOTION_DDOT>0</MEAN_MOTION_DDOT></tleParameters></data></segment></body></omm>
<omm id="CCSDS_OMM_VERS" version="2.0">
<header><CREATION_DATE/><ORIGINATOR/></header><body><segment><metadata><OBJECT_NAME>IRIDIUM 920</OBJECT_NAME><OBJECT_ID>1997-034C</OBJECT_ID><CENTER_NAME>EARTH</CENTER_NAME><REF_FRAME>TEME</REF_FRAME><TIME_SYSTEM>UTC</TIME_SYSTEM><MEAN_ELEMENT_THEORY>SGP4</MEAN_ELEMENT_THEORY></metadata><data><meanElements><EPOCH>2025-09-17T19:41:40.075872</EPOCH><MEAN_MOTION>14.41609321</MEAN_MOTION><ECCENTRICITY>.00130887</ECCENTRICITY><INCLINATION>86.4048</INCLINATION><RA_OF_ASC_NODE>174.8620</RA_OF_ASC_NODE><ARG_OF_PERICENTER>128.5516</ARG_OF_PERICENTER><MEAN_ANOMALY>231.6859</MEAN_ANOMALY></meanElements><tleParameters><EPHEMERIS_TYPE>0</EPHEMERIS_TYPE><CLASSIFICATION_TYPE>U</CLASSIFICATION_TYPE><NORAD_CAT_ID>24871</NORAD_CAT_ID><ELEMENT_SET_NO>999</ELEMENT_SET_NO><REV_AT_EPOCH>47992</REV_AT_EPOCH><BSTAR>.11635346E-3</BSTAR><MEAN_MOTION_DOT>.399E-5</MEAN_MOTION_DOT><MEAN_MOTION_DDOT>0</MEAN_MOTION_DDOT></tleParameters></data></segment></body></omm>

</ndm>
